GLOBAL-2                
1 43812U 18099BG  26204.55140061  .00002645  00000+0  17173-3 0  9999
2 43812  97.3548 239.5532 0006911  44.8832 315.2955 15.08863082417396
GLOBAL-4                
1 44499U 19054E   26204.68905910  .00062914  00000+0  55393-3 0  9990
2 44499  45.0062  25.2314 0006654 249.1242 110.8944 15.67923044386084
GLOBAL-9                
1 47971U 21023G   26204.73053433  .00021479  00000+0  40883-3 0  9996
2 47971  44.9817  44.9230 0004615 220.9908 139.0637 15.47899313300609
GLOBAL-14               
1 49469U 21106A   26204.65182238  .00026637  00000+0  42934-3 0  9999
2 49469  42.0044  74.1025 0018605 278.4677  81.4059 15.52165753263792
GLOBAL-12               
1 49772U 21115BA  26204.71532784  .00024333  00000+0  35341-3 0  9993
2 49772  53.1928 228.6066 0003073  82.6715 277.4646 15.55692493261588
GLOBAL-13               
1 49773U 21115BB  26204.49846845  .00018352  00000+0  36107-3 0  9990
2 49773  53.1961 241.7951 0000309  43.9276 316.1757 15.47339788261384
GLOBAL-17               
1 49949U 21120A   26204.16228523  .00027447  00000+0  41459-3 0  9993
2 49949  41.9927 194.6241 0014313 152.7031 207.4569 15.54027238260498
GLOBAL-16               
1 49950U 21120B   26204.29066215  .00023160  00000+0  38118-3 0  9993
2 49950  41.9930 198.2950 0012120 143.7500 216.4168 15.51761607260459
GLOBAL-18               
1 52196U 22034B   26204.82304927  .00022202  00000+0  43178-3 0  9996
2 52196  52.9813  81.3814 0004655  45.6655 314.4731 15.47533882242635
GLOBAL-19               
1 55982U 23041B   26204.77812919  .00013616  00000+0  35183-3 0  9996
2 55982  42.0029 348.3702 0010441 271.3080  88.6564 15.38867005187563
GLOBAL-5                
1 55983U 23041C   26204.81072648  .00013004  00000+0  33637-3 0  9992
2 55983  42.0022 347.7049 0009312 266.6088  93.3687 15.38876010187570
