{"fetched_at":"2026-07-24T07:06:30.609Z","source":"https://celestrak.org/NORAD/elements/gp.php?NAME=GLOBAL&FORMAT=JSON","constellation":"blacksky-gen2","records":[{"OBJECT_NAME":"GLOBAL-2","OBJECT_ID":"2018-099BG","EPOCH":"2026-07-23T13:14:01.012704","CLASSIFICATION_TYPE":"U","MEAN_MOTION":15.08863082,"ECCENTRICITY":0.0006911,"INCLINATION":97.3548,"RA_OF_ASC_NODE":239.5532,"ARG_OF_PERICENTER":44.8832,"MEAN_ANOMALY":315.2955,"EPHEMERIS_TYPE":0,"NORAD_CAT_ID":43812,"ELEMENT_SET_NO":999,"REV_AT_EPOCH":41739,"BSTAR":0.00017173,"MEAN_MOTION_DOT":0.00002645,"MEAN_MOTION_DDOT":0},{"OBJECT_NAME":"GLOBAL-4","OBJECT_ID":"2019-054E","EPOCH":"2026-07-23T16:32:14.706240","CLASSIFICATION_TYPE":"U","MEAN_MOTION":15.67923044,"ECCENTRICITY":0.0006654,"INCLINATION":45.0062,"RA_OF_ASC_NODE":25.2314,"ARG_OF_PERICENTER":249.1242,"MEAN_ANOMALY":110.8944,"EPHEMERIS_TYPE":0,"NORAD_CAT_ID":44499,"ELEMENT_SET_NO":999,"REV_AT_EPOCH":38608,"BSTAR":0.00055393,"MEAN_MOTION_DOT":0.00062914,"MEAN_MOTION_DDOT":0},{"OBJECT_NAME":"GLOBAL-9","OBJECT_ID":"2021-023G","EPOCH":"2026-07-23T17:31:58.166112","CLASSIFICATION_TYPE":"U","MEAN_MOTION":15.47899313,"ECCENTRICITY":0.0004615,"INCLINATION":44.9817,"RA_OF_ASC_NODE":44.923,"ARG_OF_PERICENTER":220.9908,"MEAN_ANOMALY":139.0637,"EPHEMERIS_TYPE":0,"NORAD_CAT_ID":47971,"ELEMENT_SET_NO":999,"REV_AT_EPOCH":30060,"BSTAR":0.00040883,"MEAN_MOTION_DOT":0.00021479,"MEAN_MOTION_DDOT":0},{"OBJECT_NAME":"GLOBAL-14","OBJECT_ID":"2021-106A","EPOCH":"2026-07-23T15:38:37.453632","CLASSIFICATION_TYPE":"U","MEAN_MOTION":15.52165753,"ECCENTRICITY":0.0018605,"INCLINATION":42.0044,"RA_OF_ASC_NODE":74.1025,"ARG_OF_PERICENTER":278.4677,"MEAN_ANOMALY":81.4059,"EPHEMERIS_TYPE":0,"NORAD_CAT_ID":49469,"ELEMENT_SET_NO":999,"REV_AT_EPOCH":26379,"BSTAR":0.00042934,"MEAN_MOTION_DOT":0.00026637,"MEAN_MOTION_DDOT":0},{"OBJECT_NAME":"GLOBAL-12","OBJECT_ID":"2021-115BA","EPOCH":"2026-07-23T17:10:04.325376","CLASSIFICATION_TYPE":"U","MEAN_MOTION":15.55692493,"ECCENTRICITY":0.0003073,"INCLINATION":53.1928,"RA_OF_ASC_NODE":228.6066,"ARG_OF_PERICENTER":82.6715,"MEAN_ANOMALY":277.4646,"EPHEMERIS_TYPE":0,"NORAD_CAT_ID":49772,"ELEMENT_SET_NO":999,"REV_AT_EPOCH":26158,"BSTAR":0.00035341,"MEAN_MOTION_DOT":0.00024333,"MEAN_MOTION_DDOT":0},{"OBJECT_NAME":"GLOBAL-13","OBJECT_ID":"2021-115BB","EPOCH":"2026-07-23T11:57:47.674080","CLASSIFICATION_TYPE":"U","MEAN_MOTION":15.47339788,"ECCENTRICITY":0.0000309,"INCLINATION":53.1961,"RA_OF_ASC_NODE":241.7951,"ARG_OF_PERICENTER":43.9276,"MEAN_ANOMALY":316.1757,"EPHEMERIS_TYPE":0,"NORAD_CAT_ID":49773,"ELEMENT_SET_NO":999,"REV_AT_EPOCH":26138,"BSTAR":0.00036107,"MEAN_MOTION_DOT":0.00018352,"MEAN_MOTION_DDOT":0},{"OBJECT_NAME":"GLOBAL-17","OBJECT_ID":"2021-120A","EPOCH":"2026-07-23T03:53:41.443872","CLASSIFICATION_TYPE":"U","MEAN_MOTION":15.54027238,"ECCENTRICITY":0.00143135,"INCLINATION":41.9927,"RA_OF_ASC_NODE":194.6241,"ARG_OF_PERICENTER":152.7031,"MEAN_ANOMALY":207.4569,"EPHEMERIS_TYPE":0,"NORAD_CAT_ID":49949,"ELEMENT_SET_NO":999,"REV_AT_EPOCH":26049,"BSTAR":0.00041458699,"MEAN_MOTION_DOT":0.00027447,"MEAN_MOTION_DDOT":0},{"OBJECT_NAME":"GLOBAL-16","OBJECT_ID":"2021-120B","EPOCH":"2026-07-23T06:58:33.209760","CLASSIFICATION_TYPE":"U","MEAN_MOTION":15.51761607,"ECCENTRICITY":0.001212,"INCLINATION":41.993,"RA_OF_ASC_NODE":198.295,"ARG_OF_PERICENTER":143.75,"MEAN_ANOMALY":216.4168,"EPHEMERIS_TYPE":0,"NORAD_CAT_ID":49950,"ELEMENT_SET_NO":999,"REV_AT_EPOCH":26045,"BSTAR":0.00038118,"MEAN_MOTION_DOT":0.0002316,"MEAN_MOTION_DDOT":0},{"OBJECT_NAME":"GLOBAL-18","OBJECT_ID":"2022-034B","EPOCH":"2026-07-23T19:45:11.456928","CLASSIFICATION_TYPE":"U","MEAN_MOTION":15.47533882,"ECCENTRICITY":0.0004655,"INCLINATION":52.9813,"RA_OF_ASC_NODE":81.3814,"ARG_OF_PERICENTER":45.6655,"MEAN_ANOMALY":314.4731,"EPHEMERIS_TYPE":0,"NORAD_CAT_ID":52196,"ELEMENT_SET_NO":999,"REV_AT_EPOCH":24263,"BSTAR":0.00043178,"MEAN_MOTION_DOT":0.00022202,"MEAN_MOTION_DDOT":0},{"OBJECT_NAME":"GLOBAL-19","OBJECT_ID":"2023-041B","EPOCH":"2026-07-23T18:40:30.362016","CLASSIFICATION_TYPE":"U","MEAN_MOTION":15.38867005,"ECCENTRICITY":0.0010441,"INCLINATION":42.0029,"RA_OF_ASC_NODE":348.3702,"ARG_OF_PERICENTER":271.308,"MEAN_ANOMALY":88.6564,"EPHEMERIS_TYPE":0,"NORAD_CAT_ID":55982,"ELEMENT_SET_NO":999,"REV_AT_EPOCH":18756,"BSTAR":0.00035183,"MEAN_MOTION_DOT":0.00013616,"MEAN_MOTION_DDOT":0},{"OBJECT_NAME":"GLOBAL-5","OBJECT_ID":"2023-041C","EPOCH":"2026-07-23T19:27:26.767872","CLASSIFICATION_TYPE":"U","MEAN_MOTION":15.3887601,"ECCENTRICITY":0.0009312,"INCLINATION":42.0022,"RA_OF_ASC_NODE":347.7049,"ARG_OF_PERICENTER":266.6088,"MEAN_ANOMALY":93.3687,"EPHEMERIS_TYPE":0,"NORAD_CAT_ID":55983,"ELEMENT_SET_NO":999,"REV_AT_EPOCH":18757,"BSTAR":0.00033637,"MEAN_MOTION_DOT":0.00013004,"MEAN_MOTION_DDOT":0}]}
